#aV2007  1 24  0  0   .00000000      96 DD+AD WGS84 FIT  NGA
## 1411 259200.00000000   900.00000000 54124  .0000000000000
+   30     1  2  3  4  5  6  7  8  9 10 11 12 13 14 16 17 18
+         19 20 21 22 23 24 25 26 27 28 29 30 31  0  0  0  0
+          0  0  0  0  0  0  0  0  0  0  0  0  0  0  0  0  0
+          0  0  0  0  0  0  0  0  0  0  0  0  0  0  0  0  0
+          0  0  0  0  0  0  0  0  0  0  0  0  0  0  0  0  0
++         0  0  0  0  0  0  0  0  0  0  0  0  0  0  0  0  0
++         0  0  0  0  0  0  0  0  0  0  0  0  0  0  0  0  0
++         0  0  0  0  0  0  0  0  0  0  0  0  0  0  0  0  0
++         0  0  0  0  0  0  0  0  0  0  0  0  0  0  0  0  0
++         0  0  0  0  0  0  0  0  0  0  0  0  0  0  0  0  0
%c cc cc ccc ccc cccc cccc cccc cccc ccccc ccccc ccccc ccccc
%c cc cc ccc ccc cccc cccc cccc cccc ccccc ccccc ccccc ccccc
%f  0.0000000  0.000000000  0.00000000000  0.000000000000000
%f  0.0000000  0.000000000  0.00000000000  0.000000000000000
%i    0    0    0    0      0      0      0      0         0
%i    0    0    0    0      0      0      0      0         0
/*      NGA, ST. LOUIS,MO.                                  
/*   EPHEMERIS COMPUTED FROM  3 DAYS OF DATA                
/* CCCCCCCCCCCCCCCCCCCCCCCCCCCCCCCCCCCCCCCCCCCCCCCCCCCCCCCCC
/* CCCCCCCCCCCCCCCCCCCCCCCCCCCCCCCCCCCCCCCCCCCCCCCCCCCCCCCCC
*  2007  1 24 16 15   .00000000                                                 
P  1  14582.601836  13871.319594  17573.415900    103.425364                    
V  1 -21730.745136  -2179.844468  19932.601164       .023308                    
P  2 -13896.593250 -22321.918248  -4855.437493     76.201857                    
V  2    260.326433  -6524.423004  30493.797837       .034012                    
P  3  18587.453282  11701.521937 -15359.939338      2.900181                    
V  3 -19139.849333   2303.652083 -21364.804384       .059610                    
P  4  -4117.932207 -24696.100474   8234.936025    356.760677                    
V  4   7247.145472   8499.341673  29257.064267       .024775                    
P  5 -18806.933564   6954.719799  17116.570206     19.315223                    
V  5   9606.741733 -20249.830112  18683.840426       .112824                    
P  6 -22262.930106   7552.453379 -12223.196105    434.988548                    
V  6 -15611.924999  -4107.890353  25457.627891      -.244072                    
P  7 -20182.605245   9564.535589 -14103.738552    437.114250                    
V  7 -18380.950376  -3544.073115  23259.302528      -.112717                    
P  8   3989.602970 -20318.006861 -16498.868676    -94.222242                    
V  8   9283.950854  18766.852695 -21440.865628      -.013612                    
P  9 -17664.763338  -8330.218473  17530.312861     54.524971                    
V  9  -8862.298663 -21636.797225 -18374.793912       .015977                    
P 10  -9551.621756 -12006.090221 -21754.173379     96.380452                    
V 10  16988.022006 -21475.545452   4731.080247       .006350                    
P 11  19512.615197   4013.665634  17589.576333      4.777638                    
V 11  10416.545393  20311.556628 -15808.758182       .013348                    
P 12 -19031.587867   5002.981544  17926.641438    -59.101044                    
V 12  11903.423745 -19234.793704  18150.921386       .054762                    
P 13  20283.962893  -7424.508629 -15514.554917    136.185362                    
V 13  19140.426183   3899.975518  23336.399390       .039970                    
P 14  -2739.310082  14428.654021  22213.865419      5.808346                    
V 14 -27705.835002  -3478.456135  -1227.189417       .012502                    
P 16   4437.889352  17038.825060 -19763.524690    115.557525                    
V 16 -16097.287168  19565.537923  13324.011439       .037425                    
P 17   2657.162001 -15027.765602  21730.825364     81.291471                    
V 17  27431.013046   3147.799001  -1291.631626      -.014473                    
P 18 -17369.979325  19754.186603  -1926.589114   -253.886728                    
V 18   -935.334170  -4094.615022 -31712.391207       .000271                    
P 19  24535.608947   8363.180861  -5922.512808     60.343211                    
V 19  -7976.734770   1448.195966 -30419.987924       .043178                    
P 20  19484.338347  -7592.835824  16255.123012    -22.091463                    
V 20 -10383.824794  18197.157442  20868.282526      -.001392                    
P 21  -9236.108507  15120.653977 -19522.451911     69.373327                    
V 21 -11072.272445 -22743.966736 -12870.617005       .010851                    
P 22  -9651.321718  22873.870785   9572.961891    163.835309                    
V 22  -9621.775006   7598.326350 -28342.353833       .019812                    
P 23  26095.402018  -1043.840607  -5451.922581    147.175539                    
V 23   6505.786875   2972.316869  30831.523082       .014364                    
P 24 -17014.741638 -10400.170682 -17227.993016     71.429885                    
V 24  -6179.922809 -21569.781353  19208.474048       .032731                    
P 25  11847.334859  23652.287102   1852.550049    372.559853                    
V 25  -3552.094448   -163.833468  31655.177370      -.128518                    
P 26 -24151.381890  -8750.875894  -8254.112617     -9.998163                    
V 26   9789.708527    159.523172 -29796.886255      -.179970                    
P 27   9439.786074 -12869.831640 -20545.169537     90.302464                    
V 27  13648.020683  24031.261352  -8788.359947       .020056                    
P 28  12009.405859 -22773.082374   6024.472883      8.887098                    
V 28   6767.730929  -4056.167178 -30755.594539      -.009034                    
P 29 -21872.038319  -9852.185983 -11544.609647    326.623923                    
V 29  14920.133654     26.619288 -27416.263905       .144530                    
P 30 -18752.315692  16221.980733   9061.546007     23.483758                    
V 30   4070.841540 -11707.359385  28542.897262       .010520                    
P 31   6606.076398  25011.937027   6094.239102       .200205                    
V 31  -5564.939797  -5710.417045  30518.827213       .048790                    
EOF
